HULIANWANG DIGUI-61     
1 65167U 25174D   26183.24773792  .00000051  00000+0  85234-4 0  9996
2 65167  86.4958 246.9477 0001676  95.6038 264.5287 13.24406921 42784
HULIANWANG DIGUI-62     
1 65168U 25174E   26183.25519096  .00000064  00000+0  11560-3 0  9997
2 65168  86.4900 246.7675 0001645 100.8313 259.3006 13.24408469 42781
HULIANWANG DIGUI-63     
1 65169U 25174F   26183.26261521  .00000077  00000+0  14570-3 0  9994
2 65169  86.4952 246.9347 0001571  97.7066 262.4246 13.24402766 42789
HULIANWANG DIGUI-64     
1 65170U 25174G   26183.27037088  .00000076  00000+0  14366-3 0  9998
2 65170  86.4911 246.8104 0001704 101.7373 258.3953 13.24406708 42780
HULIANWANG DIGUI-65     
1 65171U 25174H   26183.28543022  .00000086  00000+0  16653-3 0  9992
2 65171  86.4875 246.7028 0001726  95.6775 264.4556 13.24406782 42784
HULIANWANG DIGUI-66     
1 65172U 25174J   26183.27791402  .00000087  00000+0  16973-3 0  9995
2 65172  86.4910 246.8118 0001764 100.3589 259.7744 13.24406428 42788
HULIANWANG DIGUI-67     
1 65173U 25174K   26183.29300546  .00000068  00000+0  12412-3 0  9996
2 65173  86.4922 246.8536 0001775  98.6425 261.4911 13.24407926 42753
STARLINK-34956          
1 65174U 25175A   26183.18490093  .00006161  00000+0  43037-3 0  9990
2 65174  97.2865  53.8865 0001772  77.3227 282.8199 15.05662072 49839
STARLINK-34949          
1 65175U 25175B   26183.18212907  .00002966  00000+0  20932-3 0  9995
2 65175  97.2865  53.8918 0002070  73.0905 287.0549 15.05661182 49878
STARLINK-34707          
1 65176U 25175C   26183.17936134  .00003498  00000+0  24616-3 0  9994
2 65176  97.2866  53.8946 0002215  87.1918 272.9564 15.05659436 49860
STARLINK-34967          
1 65177U 25175D   26183.17659555  .00003547  00000+0  24956-3 0  9996
2 65177  97.2866  53.9000 0002615  84.6299 275.5227 15.05658293 49866
STARLINK-34929          
1 65178U 25175E   26183.17382951  .00007505  00000+0  52340-3 0  9996
2 65178  97.2857  53.9033 0003055  87.8418 272.3160 15.05657592 49862
STARLINK-34932          
1 65179U 25175F   26183.16828756  .00001377  00000+0  99315-4 0  9999
2 65179  97.2868  53.9129 0002273  91.7909 268.3579 15.05659867 49867
STARLINK-34862          
1 65180U 25175G   26183.23197998  .00006834  00000+0  47696-3 0  9993
2 65180  97.2854  53.9774 0002707  84.0800 276.0736 15.05661927 49879
STARLINK-34942          
1 65181U 25175H   26183.23752234  .00012720  00000+0  88347-3 0  9993
2 65181  97.2849  53.9711 0002236  93.5983 266.5500 15.05667467 49844
STARLINK-34944          
1 65182U 25175J   26183.16277445  .00000576  00000+0  43800-4 0  9994
2 65182  97.2915  53.9202 0003405  87.6764 272.4853 15.05644712 49861
STARLINK-34939          
1 65183U 25175K   26183.22644447  .00004085  00000+0  28687-3 0  9996
2 65183  97.2871  53.9860 0002458  85.6905 274.4604 15.05650878 49849
STARLINK-34947          
1 65184U 25175L   26183.22367363  .00002025  00000+0  14416-3 0  9993
2 65184  97.2862  53.9903 0002444  92.6610 267.4898 15.05655135 49875
STARLINK-34945          
1 65185U 25175M   26183.22090594  .00007891  00000+0  55003-3 0  9996
2 65185  97.2855  53.9928 0002738  88.8110 271.3431 15.05659306 49874
STARLINK-34965          
1 65186U 25175N   26183.21536875  .00006963  00000+0  48563-3 0  9995
2 65186  97.2837  54.0010 0002730  74.7632 285.3898 15.05678618 49873
STARLINK-34915          
1 65187U 25175P   26183.21813568  .00005003  00000+0  35026-3 0  9997
2 65187  97.2851  53.9978 0002554  82.3968 277.7549 15.05664250 49877
STARLINK-34972          
1 65188U 25175Q   26183.21259804  .00003649  00000+0  25659-3 0  9990
2 65188  97.2866  54.0051 0002202  90.3699 269.7781 15.05659823 49844
STARLINK-34866          
1 65189U 25175R   26183.20983138  .00001087  00000+0  79212-4 0  9993
2 65189  97.2875  54.0101 0002454  79.5681 280.5824 15.05656838 49875
STARLINK-34917          
1 65190U 25175S   26183.25003472 -.00055646  00000+0 -38791-2 0  9991
2 65190  97.2860  54.0540 0001727  85.7254 147.1837 15.05687751  5798
STARLINK-34948          
1 65191U 25175T   26183.20431265  .00006412  00000+0  44745-3 0  9994
2 65191  97.2877  54.0132 0005929  46.6778 313.4943 15.05674687 49876
STARLINK-34955          
1 65192U 25175U   26183.20154049  .00005707  00000+0  39898-3 0  9996
2 65192  97.2882  54.0219 0002322  83.8617 276.2875 15.05664208 49843
STARLINK-34950          
1 65193U 25175V   26183.19874880  .00002873  00000+0  20282-3 0  9995
2 65193  97.2870  54.0249 0000634 117.1828 242.9464 15.05669315 49841
STARLINK-34926          
1 65194U 25175W   26183.18768320  .00001282  00000+0  92709-4 0  9993
2 65194  97.2901  54.0391 0002206  79.3738 280.7738 15.05654571 49843
STARLINK-34928          
1 65195U 25175X   26183.19044848  .00006335  00000+0  44237-3 0  9993
2 65195  97.2842  54.0367 0002042  79.3868 280.7589 15.05665326 49870
STARLINK-34927          
1 65196U 25175Y   26183.19598234  .00006218  00000+0  43435-3 0  9996
2 65196  97.2858  54.0264 0001694 118.1354 242.0045 15.05663110 49875
