OBJECT_NAME,OBJECT_ID,EPOCH,MEAN_MOTION,ECCENTRICITY,INCLINATION,RA_OF_ASC_NODE,ARG_OF_PERICENTER,MEAN_ANOMALY,EPHEMERIS_TYPE,CLASSIFICATION_TYPE,NORAD_CAT_ID,ELEMENT_SET_NO,REV_AT_EPOCH,BSTAR,MEAN_MOTION_DOT,MEAN_MOTION_DDOT
HULIANWANG DIGUI-61,2025-174D,2026-07-02T05:56:44.556288,13.24406921,.00016761,86.4958,246.9477,95.6038,264.5287,0,U,65167,999,4278,.85234001E-4,.51E-6,0
HULIANWANG DIGUI-62,2025-174E,2026-07-02T06:07:28.498944,13.24408469,.0001645,86.4900,246.7675,100.8313,259.3006,0,U,65168,999,4278,.11560411E-3,.64E-6,0
HULIANWANG DIGUI-63,2025-174F,2026-07-02T06:18:09.954144,13.24402766,.00015713,86.4952,246.9347,97.7066,262.4246,0,U,65169,999,4278,.14569817E-3,.77E-6,0
HULIANWANG DIGUI-64,2025-174G,2026-07-02T06:29:20.044032,13.24406708,.00017049,86.4911,246.8104,101.7373,258.3953,0,U,65170,999,4278,.14365774E-3,.76E-6,0
HULIANWANG DIGUI-65,2025-174H,2026-07-02T06:51:01.171008,13.24406782,.00017266,86.4875,246.7028,95.6775,264.4556,0,U,65171,999,4278,.16652779E-3,.86E-6,0
HULIANWANG DIGUI-66,2025-174J,2026-07-02T06:40:11.771328,13.24406428,.00017649,86.4910,246.8118,100.3589,259.7744,0,U,65172,999,4278,.16972938E-3,.87E-6,0
HULIANWANG DIGUI-67,2025-174K,2026-07-02T07:01:55.671744,13.24407926,.0001775,86.4922,246.8536,98.6425,261.4911,0,U,65173,999,4275,.12411778E-3,.68E-6,0
STARLINK-34956,2025-175A,2026-07-02T04:26:15.440352,15.05662072,.00017722,97.2865,53.8865,77.3227,282.8199,0,U,65174,999,4983,.43037383E-3,.6161E-4,0
STARLINK-34949,2025-175B,2026-07-02T04:22:15.951648,15.05661182,.00020706,97.2865,53.8918,73.0905,287.0549,0,U,65175,999,4987,.20931958E-3,.2966E-4,0
STARLINK-34707,2025-175C,2026-07-02T04:18:16.819776,15.05659436,.00022152,97.2866,53.8946,87.1918,272.9564,0,U,65176,999,4986,.24616452E-3,.3498E-4,0
STARLINK-34967,2025-175D,2026-07-02T04:14:17.855520,15.05658293,.00026159,97.2866,53.9000,84.6299,275.5227,0,U,65177,999,4986,.24956494E-3,.3547E-4,0
STARLINK-34929,2025-175E,2026-07-02T04:10:18.869664,15.05657592,.00030555,97.2857,53.9033,87.8418,272.3160,0,U,65178,999,4986,.52340411E-3,.7505E-4,0
STARLINK-34932,2025-175F,2026-07-02T04:02:20.045184,15.05659867,.0002273,97.2868,53.9129,91.7909,268.3579,0,U,65179,999,4986,.99315104E-4,.1377E-4,0
STARLINK-34862,2025-175G,2026-07-02T05:34:03.070272,15.05661927,.00027072,97.2854,53.9774,84.0800,276.0736,0,U,65180,999,4987,.47696063E-3,.6834E-4,0
STARLINK-34942,2025-175H,2026-07-02T05:42:01.930176,15.05667467,.00022362,97.2849,53.9711,93.5983,266.5500,0,U,65181,999,4984,.88347106E-3,.1272E-3,0
STARLINK-34944,2025-175J,2026-07-02T03:54:23.712480,15.05644712,.00034054,97.2915,53.9202,87.6764,272.4853,0,U,65182,999,4986,.43800362E-4,.576E-5,0
STARLINK-34939,2025-175K,2026-07-02T05:26:04.802208,15.05650878,.00024585,97.2871,53.9860,85.6905,274.4604,0,U,65183,999,4984,.28686816E-3,.4085E-4,0
STARLINK-34947,2025-175L,2026-07-02T05:22:05.401632,15.05655135,.00024448,97.2862,53.9903,92.6610,267.4898,0,U,65184,999,4987,.14415691E-3,.2025E-4,0
STARLINK-34945,2025-175M,2026-07-02T05:18:06.273216,15.05659306,.00027386,97.2855,53.9928,88.8110,271.3431,0,U,65185,999,4987,.55003087E-3,.7891E-4,0
STARLINK-34965,2025-175N,2026-07-02T05:10:07.860000,15.05678618,.00027302,97.2837,54.0010,74.7632,285.3898,0,U,65186,999,4987,.48563263E-3,.6963E-4,0
STARLINK-34915,2025-175P,2026-07-02T05:14:06.922752,15.05664250,.0002554,97.2851,53.9978,82.3968,277.7549,0,U,65187,999,4987,.35026403E-3,.5003E-4,0
STARLINK-34972,2025-175Q,2026-07-02T05:06:08.470656,15.05659823,.00022025,97.2866,54.0051,90.3699,269.7781,0,U,65188,999,4984,.2565892E-3,.3649E-4,0
STARLINK-34866,2025-175R,2026-07-02T05:02:09.431232,15.05656838,.00024547,97.2875,54.0101,79.5681,280.5824,0,U,65189,999,4987,.79211546E-4,.1087E-4,0
STARLINK-34917,2025-175S,2026-07-02T06:00:02.999808,15.05687751,.00017275,97.2860,54.0540,85.7254,147.1837,0,U,65190,999,579,-.38790881E-2,-.55646E-3,0
STARLINK-34948,2025-175T,2026-07-02T04:54:12.612960,15.05674687,.00059298,97.2877,54.0132,46.6778,313.4943,0,U,65191,999,4987,.44744848E-3,.6412E-4,0
STARLINK-34955,2025-175U,2026-07-02T04:50:13.098336,15.05664208,.00023227,97.2882,54.0219,83.8617,276.2875,0,U,65192,999,4984,.39897826E-3,.5707E-4,0
STARLINK-34950,2025-175V,2026-07-02T04:46:11.896320,15.05669315,.00006346,97.2870,54.0249,117.1828,242.9464,0,U,65193,999,4984,.20282381E-3,.2873E-4,0
STARLINK-34926,2025-175W,2026-07-02T04:30:15.828480,15.05654571,.0002206,97.2901,54.0391,79.3738,280.7738,0,U,65194,999,4984,.92708604E-4,.1282E-4,0
STARLINK-34928,2025-175X,2026-07-02T04:34:14.748672,15.05665326,.00020427,97.2842,54.0367,79.3868,280.7589,0,U,65195,999,4987,.44237155E-3,.6335E-4,0
STARLINK-34927,2025-175Y,2026-07-02T04:42:12.874176,15.05663110,.00016948,97.2858,54.0264,118.1354,242.0045,0,U,65196,999,4987,.43434973E-3,.6218E-4,0
